{
  "type": "FeatureCollection",
  "features": [
    {
      "type": "Feature",
      "properties": {
        "norad_id": 67000,
        "name": "2025-292H",
        "group": "last-30-days",
        "lat": -66.2283654781026,
        "lon": -136.93405981332725,
        "alt_km": 550.333293147155,
        "timestamp": "2025-12-14T07:33:18.190102+00:00",
        "meta_object_name": "2025-292H",
        "meta_object_id": "2025-292H",
        "meta_epoch": "2025-12-11T21:00:30.464640",
        "meta_mean_motion": 15.04864273,
        "meta_eccentricity": 0.0014339,
        "meta_inclination": 97.6576,
        "meta_ra_of_asc_node": 58.4335,
        "meta_arg_of_pericenter": 283.4517,
        "meta_mean_anomaly": 76.5111,
        "meta_ephemeris_type": 0,
        "meta_classification_type": "U",
        "meta_norad_cat_id": 67000,
        "meta_element_set_no": 999,
        "meta_rev_at_epoch": 13,
        "meta_bstar": 0.00023206,
        "meta_mean_motion_dot": 3.225e-05,
        "meta_mean_motion_ddot": 0,
        "tle_line1": "1 67000U 25292H   25345.87535260  .00003225  00000+0  23206-3 0  9995",
        "tle_line2": "2 67000  97.6576  58.4335 0014339 283.4517  76.5111 15.04864273   138"
      },
      "geometry": {
        "type": "Point",
        "coordinates": [
          -136.93405981332725,
          -66.2283654781026
        ]
      }
    },
    {
      "type": "Feature",
      "properties": {
        "norad_id": 67001,
        "name": "2025-292J",
        "group": "last-30-days",
        "lat": -58.14884262259192,
        "lon": -131.65576208528964,
        "alt_km": 551.6490129166177,
        "timestamp": "2025-12-14T07:33:18.190111+00:00",
        "meta_object_name": "2025-292J",
        "meta_object_id": "2025-292J",
        "meta_epoch": "2025-12-13T11:20:17.855232",
        "meta_mean_motion": 15.0431611,
        "meta_eccentricity": 0.00143059,
        "meta_inclination": 97.657,
        "meta_ra_of_asc_node": 60.0163,
        "meta_arg_of_pericenter": 266.1869,
        "meta_mean_anomaly": 93.7722,
        "meta_ephemeris_type": 0,
        "meta_classification_type": "U",
        "meta_norad_cat_id": 67001,
        "meta_element_set_no": 999,
        "meta_rev_at_epoch": 50,
        "meta_bstar": 0.00074407063,
        "meta_mean_motion_dot": 0.00010337,
        "meta_mean_motion_ddot": 0,
        "tle_line1": "1 67001U 25292J   25347.47242888  .00010337  00000+0  74407-3 0  9996",
        "tle_line2": "2 67001  97.6570  60.0163 0014305 266.1869  93.7722 15.04316110   504"
      },
      "geometry": {
        "type": "Point",
        "coordinates": [
          -131.65576208528964,
          -58.14884262259192
        ]
      }
    },
    {
      "type": "Feature",
      "properties": {
        "norad_id": 67002,
        "name": "ZK-1A R/B",
        "group": "last-30-days",
        "lat": -76.48118949918161,
        "lon": -153.15005744682347,
        "alt_km": 435.07851875067445,
        "timestamp": "2025-12-14T07:33:18.190121+00:00",
        "meta_object_name": "ZK-1A R/B",
        "meta_object_id": "2025-292K",
        "meta_epoch": "2025-12-13T16:32:08.415456",
        "meta_mean_motion": 15.54923446,
        "meta_eccentricity": 0.02191697,
        "meta_inclination": 97.724,
        "meta_ra_of_asc_node": 60.544,
        "meta_arg_of_pericenter": 2.5091,
        "meta_mean_anomaly": 357.7206,
        "meta_ephemeris_type": 0,
        "meta_classification_type": "U",
        "meta_norad_cat_id": 67002,
        "meta_element_set_no": 999,
        "meta_rev_at_epoch": 54,
        "meta_bstar": 0.00094718902,
        "meta_mean_motion_dot": 0.00192596,
        "meta_mean_motion_ddot": 1.1714056e-05,
        "tle_line1": "1 67002U 25292K   25347.68898629  .00192596  11714-4  94719-3 0  9995",
        "tle_line2": "2 67002  97.7240  60.5440 0219169   2.5091 357.7206 15.54923446   542"
      },
      "geometry": {
        "type": "Point",
        "coordinates": [
          -153.15005744682347,
          -76.48118949918161
        ]
      }
    },
    {
      "type": "Feature",
      "properties": {
        "norad_id": 67059,
        "name": "HULIANWANG DIGUI 16A",
        "group": "last-30-days",
        "lat": -2.1746431023537554,
        "lon": 3.767127539436721,
        "alt_km": 808.3881388601985,
        "timestamp": "2025-12-14T07:33:18.190132+00:00",
        "meta_object_name": "HULIANWANG DIGUI 16A",
        "meta_object_id": "2025-295A",
        "meta_epoch": "2025-12-12T05:06:27.347328",
        "meta_mean_motion": 14.25879966,
        "meta_eccentricity": 0.00136284,
        "meta_inclination": 50.0035,
        "meta_ra_of_asc_node": 14.4753,
        "meta_arg_of_pericenter": 247.7813,
        "meta_mean_anomaly": 112.1656,
        "meta_ephemeris_type": 0,
        "meta_classification_type": "U",
        "meta_norad_cat_id": 67059,
        "meta_element_set_no": 999,
        "meta_rev_at_epoch": 4,
        "meta_bstar": 3.434713e-06,
        "meta_mean_motion_dot": -1.52e-06,
        "meta_mean_motion_ddot": 0,
        "tle_line1": "1 67059U 25295A   25346.21281652 -.00000152  00000+0  34347-5 0  9991",
        "tle_line2": "2 67059  50.0035  14.4753 0013628 247.7813 112.1656 14.25879966    41"
      },
      "geometry": {
        "type": "Point",
        "coordinates": [
          3.767127539436721,
          -2.1746431023537554
        ]
      }
    },
    {
      "type": "Feature",
      "properties": {
        "norad_id": 67060,
        "name": "HULIANWANG DIGUI 16B",
        "group": "last-30-days",
        "lat": -1.2620029773274568,
        "lon": 4.5339009942563235,
        "alt_km": 808.4642496806418,
        "timestamp": "2025-12-14T07:33:18.190144+00:00",
        "meta_object_name": "HULIANWANG DIGUI 16B",
        "meta_object_id": "2025-295B",
        "meta_epoch": "2025-12-12T05:06:25.468992",
        "meta_mean_motion": 14.26022254,
        "meta_eccentricity": 0.0013423,
        "meta_inclination": 50.0012,
        "meta_ra_of_asc_node": 14.4776,
        "meta_arg_of_pericenter": 244.6732,
        "meta_mean_anomaly": 115.2792,
        "meta_ephemeris_type": 0,
        "meta_classification_type": "U",
        "meta_norad_cat_id": 67060,
        "meta_element_set_no": 999,
        "meta_rev_at_epoch": 4,
        "meta_bstar": 4.398892e-06,
        "meta_mean_motion_dot": -1.5e-06,
        "meta_mean_motion_ddot": 0,
        "tle_line1": "1 67060U 25295B   25346.21279478 -.00000150  00000+0  43989-5 0  9996",
        "tle_line2": "2 67060  50.0012  14.4776 0013423 244.6732 115.2792 14.26022254    48"
      },
      "geometry": {
        "type": "Point",
        "coordinates": [
          4.5339009942563235,
          -1.2620029773274568
        ]
      }
    },
    {
      "type": "Feature",
      "properties": {
        "norad_id": 67062,
        "name": "HULIANWANG DIGUI 16D",
        "group": "last-30-days",
        "lat": -1.832223917686775,
        "lon": 4.052612513120078,
        "alt_km": 807.5907466799144,
        "timestamp": "2025-12-14T07:33:18.190156+00:00",
        "meta_object_name": "HULIANWANG DIGUI 16D",
        "meta_object_id": "2025-295D",
        "meta_epoch": "2025-12-12T05:06:24.477120",
        "meta_mean_motion": 14.25916921,
        "meta_eccentricity": 0.00124974,
        "meta_inclination": 50.0052,
        "meta_ra_of_asc_node": 14.4731,
        "meta_arg_of_pericenter": 251.2247,
        "meta_mean_anomaly": 108.7311,
        "meta_ephemeris_type": 0,
        "meta_classification_type": "U",
        "meta_norad_cat_id": 67062,
        "meta_element_set_no": 999,
        "meta_rev_at_epoch": 4,
        "meta_bstar": 3.753899e-06,
        "meta_mean_motion_dot": -1.51e-06,
        "meta_mean_motion_ddot": 0,
        "tle_line1": "1 67062U 25295D   25346.21278330 -.00000151  00000+0  37539-5 0  9999",
        "tle_line2": "2 67062  50.0052  14.4731 0012497 251.2247 108.7311 14.25916921    46"
      },
      "geometry": {
        "type": "Point",
        "coordinates": [
          4.052612513120078,
          -1.832223917686775
        ]
      }
    },
    {
      "type": "Feature",
      "properties": {
        "norad_id": 67064,
        "name": "HULIANWANG DIGUI 16F",
        "group": "last-30-days",
        "lat": 4.29995395318303,
        "lon": 9.181481780153165,
        "alt_km": 805.6090075513112,
        "timestamp": "2025-12-14T07:33:18.190166+00:00",
        "meta_object_name": "HULIANWANG DIGUI 16F",
        "meta_object_id": "2025-295F",
        "meta_epoch": "2025-12-12T05:06:22.414752",
        "meta_mean_motion": 14.26957674,
        "meta_eccentricity": 0.00149026,
        "meta_inclination": 50.0027,
        "meta_ra_of_asc_node": 14.4596,
        "meta_arg_of_pericenter": 247.8107,
        "meta_mean_anomaly": 112.1227,
        "meta_ephemeris_type": 0,
        "meta_classification_type": "U",
        "meta_norad_cat_id": 67064,
        "meta_element_set_no": 999,
        "meta_rev_at_epoch": 4,
        "meta_bstar": 2.6251967e-05,
        "meta_mean_motion_dot": -9.6e-07,
        "meta_mean_motion_ddot": 0,
        "tle_line1": "1 67064U 25295F   25346.21275943 -.00000096  00000+0  26252-4 0  9995",
        "tle_line2": "2 67064  50.0027  14.4596 0014902 247.8107 112.1227 14.26957674    44"
      },
      "geometry": {
        "type": "Point",
        "coordinates": [
          9.181481780153165,
          4.29995395318303
        ]
      }
    }
  ]
}